2025-313AS              
1 67288U 25313AS  26017.93795477  .00006021  00000+0  27212-3 0  9997
2 67288  97.4099  95.0781 0012608 151.3153 208.8779 15.21246034  3100
NASBSAT-1               
1 67289U 25313AT  26017.93552440  .00013218  00000+0  58776-3 0  9994
2 67289  97.4114  95.0861 0010644 158.6553 201.5129 15.21576536  3102
SAKHACUBE-CHOLBON (RS1*)
1 67290U 25313AU  26017.93581618  .00010134  00000+0  45261-3 0  9994
2 67290  97.4112  95.0854 0010482 157.7264 202.4429 15.21496162  3102
QMR-KWT-2 (RS95S)       
1 67291U 25313AV  26017.93525096  .00013600  00000+0  60480-3 0  9994
2 67291  97.4112  95.0862 0010374 157.6673 202.5016 15.21570609  3107
SITRO-AIS-64            
1 67292U 25313AW  26017.93457235  .00010555  00000+0  46998-3 0  9998
2 67292  97.4116  95.0885 0010162 157.2722 202.8966 15.21594322  3108
SCORPION (RS89S)        
1 67293U 25313AX  26017.93618888  .00004425  00000+0  20025-3 0  9994
2 67293  97.4109  95.0827 0012083 149.0993 211.0956 15.21350976  3106
SITRO-AIS-63            
1 67294U 25313AY  26017.93400577  .00010109  00000+0  44971-3 0  9991
2 67294  97.4120  95.0897 0010059 157.5316 202.6362 15.21635074  3103
ZORKIY-2M-5             
1 67295U 25313AZ  26017.93410912  .00009460  00000+0  42139-3 0  9998
2 67295  97.4109  95.0854 0011586 148.8438 211.3487 15.21596769  3100
SITRO-AIS-62            
1 67296U 25313BA  26017.93334877  .00010335  00000+0  45908-3 0  9994
2 67296  97.4123  95.0919 0009842 157.9344 202.2318 15.21684113  3101
SITRO-AIS-61            
1 67297U 25313BB  26017.93257334  .00010201  00000+0  45241-3 0  9999
2 67297  97.4124  95.0927 0009505 159.9452 200.2159 15.21745196  3100
TIANHUI 7               
1 67300U 25314A   26017.52022844  .00001791  00000+0  73576-4 0  9993
2 67300  97.4195  94.5857 0001681 103.8976 256.2449 15.25505846  2815
CZ-4B R/B               
1 67301U 25314B   26017.72574091  .00098787  50329-5  47543-3 0  9992
2 67301  97.3736  95.8812 0137328 308.9111  49.9969 15.69937457  2873
