CCSDS_OMM_VERS = 2.0
CREATION_DATE  = 
ORIGINATOR     = 

OBJECT_NAME    = 2025-313AS
OBJECT_ID      = 2025-313AS
CENTER_NAME    = EARTH
REF_FRAME      = TEME
TIME_SYSTEM    = UTC
MEAN_ELEMENT_THEORY = SGP/SGP4

EPOCH          = 2026-01-17T22:30:39.292128
MEAN_MOTION    = 15.21246034
ECCENTRICITY   = .00126086
INCLINATION    = 97.4099
RA_OF_ASC_NODE = 95.0781
ARG_OF_PERICENTER = 151.3153
MEAN_ANOMALY   = 208.8779

EPHEMERIS_TYPE = 0
CLASSIFICATION_TYPE = U
NORAD_CAT_ID   = 67288
ELEMENT_SET_NO = 999
REV_AT_EPOCH   = 310
BSTAR          = .27211869E-3
MEAN_MOTION_DOT = .6021E-4
MEAN_MOTION_DDOT = 0

CCSDS_OMM_VERS = 2.0
CREATION_DATE  = 
ORIGINATOR     = 

OBJECT_NAME    = NASBSAT-1
OBJECT_ID      = 2025-313AT
CENTER_NAME    = EARTH
REF_FRAME      = TEME
TIME_SYSTEM    = UTC
MEAN_ELEMENT_THEORY = SGP/SGP4

EPOCH          = 2026-01-17T22:27:09.308160
MEAN_MOTION    = 15.21576536
ECCENTRICITY   = .00106448
INCLINATION    = 97.4114
RA_OF_ASC_NODE = 95.0861
ARG_OF_PERICENTER = 158.6553
MEAN_ANOMALY   = 201.5129

EPHEMERIS_TYPE = 0
CLASSIFICATION_TYPE = U
NORAD_CAT_ID   = 67289
ELEMENT_SET_NO = 999
REV_AT_EPOCH   = 310
BSTAR          = .58776008E-3
MEAN_MOTION_DOT = .13218E-3
MEAN_MOTION_DDOT = 0

CCSDS_OMM_VERS = 2.0
CREATION_DATE  = 
ORIGINATOR     = 

OBJECT_NAME    = SAKHACUBE-CHOLBON (RS18S)
OBJECT_ID      = 2025-313AU
CENTER_NAME    = EARTH
REF_FRAME      = TEME
TIME_SYSTEM    = UTC
MEAN_ELEMENT_THEORY = SGP/SGP4

EPOCH          = 2026-01-17T22:27:34.517952
MEAN_MOTION    = 15.21496162
ECCENTRICITY   = .00104828
INCLINATION    = 97.4112
RA_OF_ASC_NODE = 95.0854
ARG_OF_PERICENTER = 157.7264
MEAN_ANOMALY   = 202.4429

EPHEMERIS_TYPE = 0
CLASSIFICATION_TYPE = U
NORAD_CAT_ID   = 67290
ELEMENT_SET_NO = 999
REV_AT_EPOCH   = 310
BSTAR          = .45261499E-3
MEAN_MOTION_DOT = .10134E-3
MEAN_MOTION_DDOT = 0

CCSDS_OMM_VERS = 2.0
CREATION_DATE  = 
ORIGINATOR     = 

OBJECT_NAME    = QMR-KWT-2 (RS95S)
OBJECT_ID      = 2025-313AV
CENTER_NAME    = EARTH
REF_FRAME      = TEME
TIME_SYSTEM    = UTC
MEAN_ELEMENT_THEORY = SGP/SGP4

EPOCH          = 2026-01-17T22:26:45.682944
MEAN_MOTION    = 15.21570609
ECCENTRICITY   = .0010374
INCLINATION    = 97.4112
RA_OF_ASC_NODE = 95.0862
ARG_OF_PERICENTER = 157.6673
MEAN_ANOMALY   = 202.5016

EPHEMERIS_TYPE = 0
CLASSIFICATION_TYPE = U
NORAD_CAT_ID   = 67291
ELEMENT_SET_NO = 999
REV_AT_EPOCH   = 310
BSTAR          = .60480038E-3
MEAN_MOTION_DOT = .136E-3
MEAN_MOTION_DDOT = 0

CCSDS_OMM_VERS = 2.0
CREATION_DATE  = 
ORIGINATOR     = 

OBJECT_NAME    = SITRO-AIS-64
OBJECT_ID      = 2025-313AW
CENTER_NAME    = EARTH
REF_FRAME      = TEME
TIME_SYSTEM    = UTC
MEAN_ELEMENT_THEORY = SGP/SGP4

EPOCH          = 2026-01-17T22:25:47.051040
MEAN_MOTION    = 15.21594322
ECCENTRICITY   = .00101625
INCLINATION    = 97.4116
RA_OF_ASC_NODE = 95.0885
ARG_OF_PERICENTER = 157.2722
MEAN_ANOMALY   = 202.8966

EPHEMERIS_TYPE = 0
CLASSIFICATION_TYPE = U
NORAD_CAT_ID   = 67292
ELEMENT_SET_NO = 999
REV_AT_EPOCH   = 310
BSTAR          = .46997639E-3
MEAN_MOTION_DOT = .10555E-3
MEAN_MOTION_DDOT = 0

CCSDS_OMM_VERS = 2.0
CREATION_DATE  = 
ORIGINATOR     = 

OBJECT_NAME    = SCORPION (RS89S)
OBJECT_ID      = 2025-313AX
CENTER_NAME    = EARTH
REF_FRAME      = TEME
TIME_SYSTEM    = UTC
MEAN_ELEMENT_THEORY = SGP/SGP4

EPOCH          = 2026-01-17T22:28:06.719232
MEAN_MOTION    = 15.21350976
ECCENTRICITY   = .00120839
INCLINATION    = 97.4109
RA_OF_ASC_NODE = 95.0827
ARG_OF_PERICENTER = 149.0993
MEAN_ANOMALY   = 211.0956

EPHEMERIS_TYPE = 0
CLASSIFICATION_TYPE = U
NORAD_CAT_ID   = 67293
ELEMENT_SET_NO = 999
REV_AT_EPOCH   = 310
BSTAR          = .20024698E-3
MEAN_MOTION_DOT = .4425E-4
MEAN_MOTION_DDOT = 0

CCSDS_OMM_VERS = 2.0
CREATION_DATE  = 
ORIGINATOR     = 

OBJECT_NAME    = SITRO-AIS-63
OBJECT_ID      = 2025-313AY
CENTER_NAME    = EARTH
REF_FRAME      = TEME
TIME_SYSTEM    = UTC
MEAN_ELEMENT_THEORY = SGP/SGP4

EPOCH          = 2026-01-17T22:24:58.098528
MEAN_MOTION    = 15.21635074
ECCENTRICITY   = .0010059
INCLINATION    = 97.4120
RA_OF_ASC_NODE = 95.0897
ARG_OF_PERICENTER = 157.5316
MEAN_ANOMALY   = 202.6362

EPHEMERIS_TYPE = 0
CLASSIFICATION_TYPE = U
NORAD_CAT_ID   = 67294
ELEMENT_SET_NO = 999
REV_AT_EPOCH   = 310
BSTAR          = .44971297E-3
MEAN_MOTION_DOT = .10109E-3
MEAN_MOTION_DDOT = 0

CCSDS_OMM_VERS = 2.0
CREATION_DATE  = 
ORIGINATOR     = 

OBJECT_NAME    = ZORKIY-2M-5
OBJECT_ID      = 2025-313AZ
CENTER_NAME    = EARTH
REF_FRAME      = TEME
TIME_SYSTEM    = UTC
MEAN_ELEMENT_THEORY = SGP/SGP4

EPOCH          = 2026-01-17T22:25:07.027968
MEAN_MOTION    = 15.21596769
ECCENTRICITY   = .00115865
INCLINATION    = 97.4109
RA_OF_ASC_NODE = 95.0854
ARG_OF_PERICENTER = 148.8438
MEAN_ANOMALY   = 211.3487

EPHEMERIS_TYPE = 0
CLASSIFICATION_TYPE = U
NORAD_CAT_ID   = 67295
ELEMENT_SET_NO = 999
REV_AT_EPOCH   = 310
BSTAR          = .42139197E-3
MEAN_MOTION_DOT = .946E-4
MEAN_MOTION_DDOT = 0

CCSDS_OMM_VERS = 2.0
CREATION_DATE  = 
ORIGINATOR     = 

OBJECT_NAME    = SITRO-AIS-62
OBJECT_ID      = 2025-313BA
CENTER_NAME    = EARTH
REF_FRAME      = TEME
TIME_SYSTEM    = UTC
MEAN_ELEMENT_THEORY = SGP/SGP4

EPOCH          = 2026-01-17T22:24:01.333728
MEAN_MOTION    = 15.21684113
ECCENTRICITY   = .00098427
INCLINATION    = 97.4123
RA_OF_ASC_NODE = 95.0919
ARG_OF_PERICENTER = 157.9344
MEAN_ANOMALY   = 202.2318

EPHEMERIS_TYPE = 0
CLASSIFICATION_TYPE = U
NORAD_CAT_ID   = 67296
ELEMENT_SET_NO = 999
REV_AT_EPOCH   = 310
BSTAR          = .45907633E-3
MEAN_MOTION_DOT = .10335E-3
MEAN_MOTION_DDOT = 0

CCSDS_OMM_VERS = 2.0
CREATION_DATE  = 
ORIGINATOR     = 

OBJECT_NAME    = SITRO-AIS-61
OBJECT_ID      = 2025-313BB
CENTER_NAME    = EARTH
REF_FRAME      = TEME
TIME_SYSTEM    = UTC
MEAN_ELEMENT_THEORY = SGP/SGP4

EPOCH          = 2026-01-17T22:22:54.336576
MEAN_MOTION    = 15.21745196
ECCENTRICITY   = .00095051
INCLINATION    = 97.4124
RA_OF_ASC_NODE = 95.0927
ARG_OF_PERICENTER = 159.9452
MEAN_ANOMALY   = 200.2159

EPHEMERIS_TYPE = 0
CLASSIFICATION_TYPE = U
NORAD_CAT_ID   = 67297
ELEMENT_SET_NO = 999
REV_AT_EPOCH   = 310
BSTAR          = .45241497E-3
MEAN_MOTION_DOT = .10201E-3
MEAN_MOTION_DDOT = 0

CCSDS_OMM_VERS = 2.0
CREATION_DATE  = 
ORIGINATOR     = 

OBJECT_NAME    = TIANHUI 7
OBJECT_ID      = 2025-314A
CENTER_NAME    = EARTH
REF_FRAME      = TEME
TIME_SYSTEM    = UTC
MEAN_ELEMENT_THEORY = SGP/SGP4

EPOCH          = 2026-01-17T12:29:07.737216
MEAN_MOTION    = 15.25505846
ECCENTRICITY   = .00016812
INCLINATION    = 97.4195
RA_OF_ASC_NODE = 94.5857
ARG_OF_PERICENTER = 103.8976
MEAN_ANOMALY   = 256.2449

EPHEMERIS_TYPE = 0
CLASSIFICATION_TYPE = U
NORAD_CAT_ID   = 67300
ELEMENT_SET_NO = 999
REV_AT_EPOCH   = 281
BSTAR          = .73576189E-4
MEAN_MOTION_DOT = .1791E-4
MEAN_MOTION_DDOT = 0

CCSDS_OMM_VERS = 2.0
CREATION_DATE  = 
ORIGINATOR     = 

OBJECT_NAME    = CZ-4B R/B
OBJECT_ID      = 2025-314B
CENTER_NAME    = EARTH
REF_FRAME      = TEME
TIME_SYSTEM    = UTC
MEAN_ELEMENT_THEORY = SGP/SGP4

EPOCH          = 2026-01-17T17:25:04.014624
MEAN_MOTION    = 15.69937457
ECCENTRICITY   = .01373281
INCLINATION    = 97.3736
RA_OF_ASC_NODE = 95.8812
ARG_OF_PERICENTER = 308.9111
MEAN_ANOMALY   = 49.9969

EPHEMERIS_TYPE = 0
CLASSIFICATION_TYPE = U
NORAD_CAT_ID   = 67301
ELEMENT_SET_NO = 999
REV_AT_EPOCH   = 287
BSTAR          = .475432E-3
MEAN_MOTION_DOT = .98787E-3
MEAN_MOTION_DDOT = .5032919E-5

